{
  "type": "FeatureCollection",
  "features": [
    {
      "type": "Feature",
      "properties": {
        "norad_id": 40010,
        "name": "KAZEOSAT 2",
        "group": "resource",
        "lat": -58.17657426490928,
        "lon": -150.84665903638,
        "alt_km": 622.6093729376862,
        "timestamp": "2025-12-18T19:29:52.200142+00:00",
        "meta_object_name": "KAZEOSAT 2",
        "meta_object_id": "2014-033A",
        "meta_epoch": "2025-12-18T06:49:39.567072",
        "meta_mean_motion": 14.85178715,
        "meta_eccentricity": 0.00080705,
        "meta_inclination": 97.5503,
        "meta_ra_of_asc_node": 196.3122,
        "meta_arg_of_pericenter": 186.9339,
        "meta_mean_anomaly": 173.1767,
        "meta_ephemeris_type": 0,
        "meta_classification_type": "U",
        "meta_norad_cat_id": 40010,
        "meta_element_set_no": 999,
        "meta_rev_at_epoch": 62210,
        "meta_bstar": 0.00010624767,
        "meta_mean_motion_dot": 8.6e-06,
        "meta_mean_motion_ddot": 0,
        "tle_line1": "1 40010U 14033A   25352.28448573  .00000860  00000+0  10625-3 0  9994",
        "tle_line2": "2 40010  97.5503 196.3122 0008070 186.9339 173.1767 14.85178715622104"
      },
      "geometry": {
        "type": "Point",
        "coordinates": [
          -150.84665903638,
          -58.17657426490928
        ]
      }
    },
    {
      "type": "Feature",
      "properties": {
        "norad_id": 40011,
        "name": "HODOYOSHI-4",
        "group": "resource",
        "lat": 76.76528323971334,
        "lon": 147.11550105300566,
        "alt_km": 601.676947872349,
        "timestamp": "2025-12-18T19:29:52.200152+00:00",
        "meta_object_name": "HODOYOSHI-4",
        "meta_object_id": "2014-033B",
        "meta_epoch": "2025-12-18T07:50:28.443840",
        "meta_mean_motion": 14.87498933,
        "meta_eccentricity": 0.00235858,
        "meta_inclination": 97.5409,
        "meta_ra_of_asc_node": 180.9346,
        "meta_arg_of_pericenter": 181.8801,
        "meta_mean_anomaly": 178.2331,
        "meta_ephemeris_type": 0,
        "meta_classification_type": "U",
        "meta_norad_cat_id": 40011,
        "meta_element_set_no": 999,
        "meta_rev_at_epoch": 62191,
        "meta_bstar": 8.827055e-05,
        "meta_mean_motion_dot": 7.52e-06,
        "meta_mean_motion_ddot": 0,
        "tle_line1": "1 40011U 14033B   25352.32671810  .00000752  00000+0  88271-4 0  9995",
        "tle_line2": "2 40011  97.5409 180.9346 0023585 181.8801 178.2331 14.87498933621913"
      },
      "geometry": {
        "type": "Point",
        "coordinates": [
          147.11550105300566,
          76.76528323971334
        ]
      }
    },
    {
      "type": "Feature",
      "properties": {
        "norad_id": 40013,
        "name": "DEIMOS-2",
        "group": "resource",
        "lat": -3.559231872139789,
        "lon": -131.11223239435213,
        "alt_km": 592.37745327215,
        "timestamp": "2025-12-18T19:29:52.200162+00:00",
        "meta_object_name": "DEIMOS-2",
        "meta_object_id": "2014-033D",
        "meta_epoch": "2025-12-18T06:38:45.061152",
        "meta_mean_motion": 14.92996045,
        "meta_eccentricity": 0.00012331,
        "meta_inclination": 97.6065,
        "meta_ra_of_asc_node": 227.8938,
        "meta_arg_of_pericenter": 107.6613,
        "meta_mean_anomaly": 252.4741,
        "meta_ephemeris_type": 0,
        "meta_classification_type": "U",
        "meta_norad_cat_id": 40013,
        "meta_element_set_no": 999,
        "meta_rev_at_epoch": 61072,
        "meta_bstar": 0.00020672439,
        "meta_mean_motion_dot": 2.094e-05,
        "meta_mean_motion_ddot": 0,
        "tle_line1": "1 40013U 14033D   25352.27691043  .00002094  00000+0  20672-3 0  9992",
        "tle_line2": "2 40013  97.6065 227.8938 0001233 107.6613 252.4741 14.92996045610725"
      },
      "geometry": {
        "type": "Point",
        "coordinates": [
          -131.11223239435213,
          -3.559231872139789
        ]
      }
    },
    {
      "type": "Feature",
      "properties": {
        "norad_id": 40015,
        "name": "HODOYOSHI-3",
        "group": "resource",
        "lat": -52.63591376739257,
        "lon": 168.4815021795708,
        "alt_km": 616.9649481048018,
        "timestamp": "2025-12-18T19:29:52.200173+00:00",
        "meta_object_name": "HODOYOSHI-3",
        "meta_object_id": "2014-033F",
        "meta_epoch": "2025-12-18T06:47:56.868576",
        "meta_mean_motion": 14.84825443,
        "meta_eccentricity": 0.00321157,
        "meta_inclination": 97.6203,
        "meta_ra_of_asc_node": 157.8774,
        "meta_arg_of_pericenter": 229.0096,
        "meta_mean_anomaly": 130.8341,
        "meta_ephemeris_type": 0,
        "meta_classification_type": "U",
        "meta_norad_cat_id": 40015,
        "meta_element_set_no": 999,
        "meta_rev_at_epoch": 62077,
        "meta_bstar": 0.0001625395,
        "meta_mean_motion_dot": 1.34e-05,
        "meta_mean_motion_ddot": 0,
        "tle_line1": "1 40015U 14033F   25352.28329709  .00001340  00000+0  16254-3 0  9996",
        "tle_line2": "2 40015  97.6203 157.8774 0032115 229.0096 130.8341 14.84825443620773"
      },
      "geometry": {
        "type": "Point",
        "coordinates": [
          168.4815021795708,
          -52.63591376739257
        ]
      }
    },
    {
      "type": "Feature",
      "properties": {
        "norad_id": 40053,
        "name": "SPOT 7",
        "group": "resource",
        "lat": -43.26315450311874,
        "lon": -132.94539002326965,
        "alt_km": 698.2825571571948,
        "timestamp": "2025-12-18T19:29:52.200183+00:00",
        "meta_object_name": "SPOT 7",
        "meta_object_id": "2014-034A",
        "meta_epoch": "2025-12-18T06:58:08.505408",
        "meta_mean_motion": 14.60741012,
        "meta_eccentricity": 0.00015404,
        "meta_inclination": 98.0906,
        "meta_ra_of_asc_node": 54.2382,
        "meta_arg_of_pericenter": 84.5149,
        "meta_mean_anomaly": 275.6228,
        "meta_ephemeris_type": 0,
        "meta_classification_type": "U",
        "meta_norad_cat_id": 40053,
        "meta_element_set_no": 999,
        "meta_rev_at_epoch": 61072,
        "meta_bstar": 0.00010524272,
        "meta_mean_motion_dot": 4.68e-06,
        "meta_mean_motion_ddot": 0,
        "tle_line1": "1 40053U 14034A   25352.29037622  .00000468  00000+0  10524-3 0  9994",
        "tle_line2": "2 40053  98.0906  54.2382 0001540  84.5149 275.6228 14.60741012610725"
      },
      "geometry": {
        "type": "Point",
        "coordinates": [
          -132.94539002326965,
          -43.26315450311874
        ]
      }
    },
    {
      "type": "Feature",
      "properties": {
        "norad_id": 40072,
        "name": "SKYSAT-B",
        "group": "resource",
        "lat": 19.166479043411883,
        "lon": -66.09129152369658,
        "alt_km": 608.2199944135118,
        "timestamp": "2025-12-18T19:29:52.200194+00:00",
        "meta_object_name": "SKYSAT-B",
        "meta_object_id": "2014-037D",
        "meta_epoch": "2025-12-18T03:15:54.016704",
        "meta_mean_motion": 14.87346234,
        "meta_eccentricity": 0.00064796,
        "meta_inclination": 98.3618,
        "meta_ra_of_asc_node": 296.1271,
        "meta_arg_of_pericenter": 134.7787,
        "meta_mean_anomaly": 225.3956,
        "meta_ephemeris_type": 0,
        "meta_classification_type": "U",
        "meta_norad_cat_id": 40072,
        "meta_element_set_no": 999,
        "meta_rev_at_epoch": 61904,
        "meta_bstar": 0.00016057467,
        "meta_mean_motion_dot": 1.39e-05,
        "meta_mean_motion_ddot": 0,
        "tle_line1": "1 40072U 14037D   25352.13604186  .00001390  00000+0  16057-3 0  9998",
        "tle_line2": "2 40072  98.3618 296.1271 0006479 134.7787 225.3956 14.87346234619045"
      },
      "geometry": {
        "type": "Point",
        "coordinates": [
          -66.09129152369658,
          19.166479043411883
        ]
      }
    },
    {
      "type": "Feature",
      "properties": {
        "norad_id": 40115,
        "name": "WORLDVIEW-3 (WV-3)",
        "group": "resource",
        "lat": -47.02522788438544,
        "lon": -123.52934555353667,
        "alt_km": 621.4445521911803,
        "timestamp": "2025-12-18T19:29:52.200204+00:00",
        "meta_object_name": "WORLDVIEW-3 (WV-3)",
        "meta_object_id": "2014-048A",
        "meta_epoch": "2025-12-18T05:32:09.806784",
        "meta_mean_motion": 14.84660813,
        "meta_eccentricity": 0.00016864,
        "meta_inclination": 97.8774,
        "meta_ra_of_asc_node": 64.4419,
        "meta_arg_of_pericenter": 140.5848,
        "meta_mean_anomaly": 219.5489,
        "meta_ephemeris_type": 0,
        "meta_classification_type": "U",
        "meta_norad_cat_id": 40115,
        "meta_element_set_no": 999,
        "meta_rev_at_epoch": 61505,
        "meta_bstar": 0.00011059022,
        "meta_mean_motion_dot": 8.82e-06,
        "meta_mean_motion_ddot": 0,
        "tle_line1": "1 40115U 14048A   25352.23066906  .00000882  00000+0  11059-3 0  9993",
        "tle_line2": "2 40115  97.8774  64.4419 0001686 140.5848 219.5489 14.84660813615050"
      },
      "geometry": {
        "type": "Point",
        "coordinates": [
          -123.52934555353667,
          -47.02522788438544
        ]
      }
    }
  ]
}